LYNK TOWER 4            
1 55034U 23001AB  26068.67743801  .00009160  00000+0  30014-3 0  9997
2 55034  97.3324 128.5940 0010321 112.3386 247.8950 15.31819885176588
STARLINK-31228          
1 58842U 24017S   26068.68164978  .00000130  00000+0  16503-4 0  9994
2 58842  53.1605 204.4502 0001115  91.7379 268.3749 15.30186757120050
