[{"OBJECT_NAME":"LYNK TOWER 4","OBJECT_ID":"2023-001AB","EPOCH":"2026-03-09T16:15:30.644928","MEAN_MOTION":15.31819885,"ECCENTRICITY":0.00103213,"INCLINATION":97.3324,"RA_OF_ASC_NODE":128.594,"ARG_OF_PERICENTER":112.3386,"MEAN_ANOMALY":247.895,"EPHEMERIS_TYPE":0,"CLASSIFICATION_TYPE":"U","NORAD_CAT_ID":55034,"ELEMENT_SET_NO":999,"REV_AT_EPOCH":17658,"BSTAR":0.00030013829,"MEAN_MOTION_DOT":9.16e-5,"MEAN_MOTION_DDOT":0},{"OBJECT_NAME":"STARLINK-31228","OBJECT_ID":"2024-017S","EPOCH":"2026-03-09T16:21:34.540992","MEAN_MOTION":15.30186757,"ECCENTRICITY":0.00011148,"INCLINATION":53.1605,"RA_OF_ASC_NODE":204.4502,"ARG_OF_PERICENTER":91.7379,"MEAN_ANOMALY":268.3749,"EPHEMERIS_TYPE":0,"CLASSIFICATION_TYPE":"U","NORAD_CAT_ID":58842,"ELEMENT_SET_NO":999,"REV_AT_EPOCH":12005,"BSTAR":1.6503119e-5,"MEAN_MOTION_DOT":1.3e-6,"MEAN_MOTION_DDOT":0}]
